NORAD_CAT_ID,OBJECT_NAME,OBJECT_TYPE,EPOCH,MEAN_MOTION,ECCENTRICITY,INCLINATION,RA_OF_ASC_NODE,ARG_OF_PERICENTER,MEAN_ANOMALY,BSTAR,MEAN_MOTION_DOT,MEAN_MOTION_DDOT,TLE_LINE0,TLE_LINE1,TLE_LINE2,SEMIMAJOR_AXIS,PERIOD,APOGEE,PERIGEE,DECAYED
53244.0,STARLINK-4125,PAYLOAD,2023-01-13 02:38:53,15.08839024,0.0001447,53.2178,333.7595,100.2582,259.8573,7.1111e-05,8.44e-06,0.0,0 STARLINK-4125,1 53244U 22086C   23013.11034363  .00000844  00000-0  71111-4 0  9997,2 53244  53.2178 333.7595 0001447 100.2582 259.8573 15.08839024 26899,6917.883000000002,95.438,540.749,538.747,0.0
53244.0,STARLINK-4125,PAYLOAD,2023-01-13 04:14:16,15.08842384,0.0001357,53.2183,333.464,95.6174,264.4973,9.0477e-05,1.152e-05,0.0,0 STARLINK-4125,1 53244U 22086C   23013.17658188  .00001152  00000-0  90477-4 0  9999,2 53244  53.2183 333.4640 0001357  95.6174 264.4973 15.08842384 27404,6917.8730000000005,95.437,540.677,538.799,0.0
53244.0,STARLINK-4125,PAYLOAD,2023-01-14 05:40:27,15.08841828,0.0001404,53.2188,328.7065,107.6237,252.4909,0.00015048,2.108e-05,0.0,0 STARLINK-4125,1 53244U 22086C   23014.23642396  .00002108  00000-0  15048-3 0  9993,2 53244  53.2188 328.7065 0001404 107.6237 252.4909 15.08841828 27064,6917.875,95.437,540.711,538.769,0.0
53244.0,STARLINK-4125,PAYLOAD,2023-01-15 05:31:13,15.08852924,0.00013,53.2179,324.2443,85.5828,274.5313,0.00020962,3.051e-05,0.0,0 STARLINK-4125,1 53244U 22086C   23015.23001672  .00003051  00000-0  20962-3 0  9999,2 53244  53.2179 324.2443 0001300  85.5828 274.5313 15.08852924 27715,6917.840999999999,95.437,540.605,538.807,0.0
53244.0,STARLINK-4125,PAYLOAD,2023-01-16 03:46:35,15.08873875,0.0001100999999999,53.2181,320.0811,82.1895,277.9222,0.00036057,5.461e-05,0.0,0 STARLINK-4125,1 53244U 22086C   23016.15736089  .00005461  00000-0  36057-3 0  9997,2 53244  53.2181 320.0811 0001101  82.1895 277.9222 15.08873875 27351,6917.776999999999,95.435,540.403,538.88,0.0
53244.0,STARLINK-4125,PAYLOAD,2023-01-16 19:40:29,15.0882744,0.0001491,53.2188,317.1079,69.9132,290.2021,-0.00024168,-4.131e-05,0.0,0 STARLINK-4125,1 53244U 22086C   23016.81978558 -.00004131  00000-0 -24168-3 0  9994,2 53244  53.2188 317.1079 0001491  69.9132 290.2021 15.08827440 27453,6917.919,95.438,540.815,538.752,0.0
53244.0,STARLINK-4125,PAYLOAD,2023-01-17 05:12:49,15.08816625,0.0001283,53.2176,315.3242,58.8837,301.2281,-0.00024255,-4.143e-05,0.0,0 STARLINK-4125,1 53244U 22086C   23017.21723489 -.00004143  00000-0 -24255-3 0  9990,2 53244  53.2176 315.3242 0001283  58.8837 301.2281 15.08816625 27511,6917.951999999999,95.439,540.7040000000001,538.929,0.0
53244.0,STARLINK-4125,PAYLOAD,2023-01-17 19:31:17,15.08834045,0.0001137,53.2184,312.6488,51.9228,308.1867,-0.00012956,-2.349e-05,0.0,0 STARLINK-4125,1 53244U 22086C   23017.81339180 -.00002349  00000-0 -12956-3 0  9998,2 53244  53.2184 312.6488 0001137  51.9228 308.1867 15.08834045 27600,6917.899,95.438,540.55,538.977,0.0
53244.0,STARLINK-4125,PAYLOAD,2023-01-18 05:03:33,15.08865979,9.95e-05,53.2186,310.8592,87.2771,272.8335,4.1605e-05,3.75e-06,0.0,0 STARLINK-4125,1 53244U 22086C   23018.21080911  .00000375  00000-0  41605-4 0  9997,2 53244  53.2186 310.8592 0000995  87.2771 272.8335 15.08865979 27667,6917.801,95.436,540.354,538.9780000000001,0.0
53244.0,STARLINK-4125,PAYLOAD,2023-01-18 13:00:30,15.08853714,0.0001094,53.2203,309.3754,55.2854,304.8241,-5.817100000000001e-06,-3.8e-06,0.0,0 STARLINK-4125,1 53244U 22086C   23018.54201616 -.00000380  00000-0 -58171-5 0  9995,2 53244  53.2203 309.3754 0001094  55.2854 304.8241 15.08853714 28216,6917.838000000001,95.437,540.46,538.947,0.0
53244.0,STARLINK-4125,PAYLOAD,2023-01-18 14:35:54,15.08833147,9.87e-05,53.2182,309.0747,121.4989,238.61,0.00026984,4.009e-05,0.0,0 STARLINK-4125,1 53244U 22086C   23018.60826620  .00004009  00000-0  26984-3 0  9995,2 53244  53.2182 309.0747 0000987 121.4989 238.6100 15.08833147 27727,6917.901,95.438,540.4490000000001,539.0840000000001,0.0
53244.0,STARLINK-4125,PAYLOAD,2023-01-18 20:57:26,15.08832577,0.0001095999999999,53.2177,307.8903,54.1899,305.9195,0.0003498999999999,5.284e-05,0.0,0 STARLINK-4125,1 53244U 22086C   23018.87322829  .00005284  00000-0  34990-3 0  9998,2 53244  53.2177 307.8903 0001096  54.1899 305.9195 15.08832577 28263,6917.903,95.438,540.526,539.01,0.0
53244.0,STARLINK-4125,PAYLOAD,2023-01-19 01:43:35,15.08854841,0.0001157,53.2176,306.9947,68.7205,291.3911,0.00053264,8.203e-05,0.0,0 STARLINK-4125,1 53244U 22086C   23019.07194436  .00008203  00000-0  53264-3 0  9991,2 53244  53.2176 306.9947 0001157  68.7205 291.3911 15.08854841 27799,6917.835,95.437,540.5,538.9,0.0
53244.0,STARLINK-4125,PAYLOAD,2023-01-19 04:54:21,15.0885761,0.0001002,53.2182,306.3973,89.8478,270.2629,0.00052265,8.044e-05,0.0,0 STARLINK-4125,1 53244U 22086C   23019.20442052  .00008044  00000-0  52265-3 0  9999,2 53244  53.2182 306.3973 0001002  89.8478 270.2629 15.08857610 28312,6917.826999999999,95.436,540.385,538.998,0.0
53244.0,STARLINK-4125,PAYLOAD,2023-01-19 19:12:51,15.08827147,8.09e-05,53.2179,303.723,358.6775,1.4215,-0.000343,-5.739999999999999e-05,0.0,0 STARLINK-4125,1 53244U 22086C   23019.80059614 -.00005740  00000-0 -34300-3 0  9995,2 53244  53.2179 303.7230 0000809 358.6775   1.4215 15.08827147 27907,6917.92,95.438,540.344,539.225,0.0
53244.0,STARLINK-4125,PAYLOAD,2023-01-20 01:34:23,15.08835457,9.91e-05,53.2182,302.5379,61.2277,298.8814,-0.00021109,-3.645e-05,0.0,0 STARLINK-4125,1 53244U 22086C   23020.06555244 -.00003645  00000-0 -21109-3 0  9990,2 53244  53.2182 302.5379 0000991  61.2277 298.8814 15.08835457 27942,6917.894,95.438,540.445,539.0740000000001,0.0
53244.0,STARLINK-4125,PAYLOAD,2023-01-20 11:06:42,15.08842716,9.79e-05,53.217,300.7531,87.7126,272.3978,-0.00011072,-2.05e-05,0.0,0 STARLINK-4125,1 53244U 22086C   23020.46298815 -.00002050  00000-0 -11072-3 0  9999,2 53244  53.2170 300.7531 0000979  87.7126 272.3978 15.08842716 28003,6917.871999999999,95.437,540.414,539.06,0.0
53244.0,STARLINK-4125,PAYLOAD,2023-01-21 15:43:39,15.0883583,9.27e-05,53.2172,295.4008,80.7709,279.3388,0.00022528,3.299e-05,0.0,0 STARLINK-4125,1 53244U 22086C   23021.65531595  .00003299  00000-0  22528-3 0  9998,2 53244  53.2172 295.4008 0000927  80.7709 279.3388 15.08835830 28187,6917.893,95.438,540.399,539.117,0.0
53244.0,STARLINK-4125,PAYLOAD,2023-01-22 12:23:40,15.08828881,0.0001250999999999,53.2154,291.5346,93.9924,266.1211,-2.6606e-05,-7.11e-06,0.0,0 STARLINK-4125,1 53244U 22086C   23022.51644011 -.00000711  00000-0 -26606-4 0  9992,2 53244  53.2154 291.5346 0001251  93.9924 266.1211 15.08828881 28317,6917.914000000001,95.438,540.645,538.914,0.0
53244.0,STARLINK-4125,PAYLOAD,2023-01-23 01:06:45,15.0884234,0.0001345,53.2157,289.1558,105.3575,254.7566,0.00016024,2.263e-05,0.0,0 STARLINK-4125,1 53244U 22086C   23023.04635425  .00002263  00000-0  16024-3 0  9994,2 53244  53.2157 289.1558 0001345 105.3575 254.7566 15.08842340 28392,6917.8730000000005,95.437,540.669,538.808,0.0
53244.0,STARLINK-4125,PAYLOAD,2023-01-23 18:35:59,15.08839624,0.0001305,53.2161,285.884,95.8165,264.2976,0.00015584,2.193e-05,0.0,0 STARLINK-4125,1 53244U 22086C   23023.77499924  .00002193  00000-0  15584-3 0  9998,2 53244  53.2161 285.8840 0001305  95.8165 264.2976 15.08839624 28503,6917.882,95.438,540.649,538.844,0.0
53244.0,STARLINK-4125,PAYLOAD,2023-01-24 23:12:56,15.08841543,0.0001447,53.2161,280.5329,102.4196,257.6958,0.00028637,4.273e-05,0.0,0 STARLINK-4125,1 53244U 22086C   23024.96732025  .00004273  00000-0  28637-3 0  9996,2 53244  53.2161 280.5329 0001447 102.4196 257.6958 15.08841543 28681,6917.876,95.437,540.742,538.74,0.0
53244.0,STARLINK-4125,PAYLOAD,2023-01-25 10:20:38,15.08841947,0.0001382,53.2157,278.4511,80.0575,280.0573,9.166e-05,1.171e-05,0.0,0 STARLINK-4125,1 53244U 22086C   23025.43099985  .00001171  00000-0  91660-4 0  9991,2 53244  53.2157 278.4511 0001382  80.0575 280.0573 15.08841947 29250,6917.874,95.437,540.695,538.783,0.0
53244.0,STARLINK-4125,PAYLOAD,2023-01-25 19:52:57,15.08839311,0.0001453999999999,53.2157,276.66700000000003,86.0781,274.0377,4.5214e-05,4.32e-06,0.0,0 STARLINK-4125,1 53244U 22086C   23025.82844226  .00000432  00000-0  45214-4 0  9993,2 53244  53.2157 276.6670 0001454  86.0781 274.0377 15.08839311 28819,6917.882,95.438,540.753,538.742,0.0
53244.0,STARLINK-4125,PAYLOAD,2023-01-26 02:14:29,15.08846396,0.0001441999999999,53.2154,275.4764,85.3878,274.7279,0.00014905,2.085e-05,0.0,0 STARLINK-4125,1 53244U 22086C   23026.09339886  .00002085  00000-0  14905-3 0  9992,2 53244  53.2154 275.4764 0001442  85.3878 274.7279 15.08846396 29352,6917.861,95.437,540.7230000000001,538.7280000000001,0.0
53244.0,STARLINK-4125,PAYLOAD,2023-01-26 14:57:34,15.08853008,0.0001460999999999,53.2153,273.0976,84.4992,275.6166,0.00024768,3.657e-05,0.0,0 STARLINK-4125,1 53244U 22086C   23026.62331375  .00003657  00000-0  24768-3 0  9990,2 53244  53.2153 273.0976 0001461  84.4992 275.6166 15.08853008 28934,6917.840999999999,95.437,540.716,538.695,0.0
53244.0,STARLINK-4125,PAYLOAD,2023-01-27 00:29:52,15.08866973,0.0001457,53.2162,271.3105,97.7357,262.38,0.00054955,8.475e-05,0.0,0 STARLINK-4125,1 53244U 22086C   23027.02074638  .00008475  00000-0  54955-3 0  9995,2 53244  53.2162 271.3105 0001457  97.7357 262.3800 15.08866973 28995,6917.798000000001,95.436,540.6709999999999,538.655,0.0
53244.0,STARLINK-4125,PAYLOAD,2023-01-27 19:34:30,15.08836436,0.000105,53.2149,267.7447,73.61399999999999,286.4967,-0.00018256,-3.192e-05,0.0,0 STARLINK-4125,1 53244U 22086C   23027.81563425 -.00003192  00000-0 -18256-3 0  9996,2 53244  53.2149 267.7447 0001050  73.6140 286.4967 15.08836436 29117,6917.891,95.438,540.4830000000001,539.03,0.0
53244.0,STARLINK-4125,PAYLOAD,2023-01-27 21:09:53,15.08839273,0.0001109,53.2151,267.4471,89.8428,270.2691,-7.311399999999999e-05,-1.451e-05,0.0,0 STARLINK-4125,1 53244U 22086C   23027.88187388 -.00001451  00000-0 -73114-4 0  9994,2 53244  53.2151 267.4471 0001109  89.8428 270.2691 15.08839273 29620,6917.883000000001,95.438,540.515,538.98,0.0
